STARLINK-30545          
1 58000U 23153K   26068.37792304 -.00001046  00000+0 -29325-4 0  9991
2 58000  42.9998  68.3822 0001208 226.2346 133.8405 15.26741829134851
PELICAN-6               
1 66703U 25276AP  26068.70709364  .00077979  00000+0  29726-2 0  9998
2 66703  97.4276 144.2072 0003569 157.8575 202.2819 15.26377980 15334
